start=new Date('2021-12-26T00:00:00.000Z').valueOf();
sats=[{"OBJECT_ID":"2020-001B","BSTAR":"0.00015048000000","INCLINATION":"53.0544","RCS_SIZE":"LARGE","EPOCH":"2021-12-25T12:21:29.077632","DECAY_DATE":null,"FILE":"3250775","GP_ID":"192427006","PERIAPSIS":"546.231","ARG_OF_PERICENTER":"52.3342","ECCENTRICITY":"0.00014480","SEMIMAJOR_AXIS":"6925.369","MEAN_MOTION":"15.06393372","RA_OF_ASC_NODE":"38.2900","REV_AT_EPOCH":"10846","TLE_LINE1":"1 44915U 20001B   21359.51491988  .00001960  00000-0  15048-3 0  9998","MEAN_MOTION_DDOT":"0.0000000000000","PERIOD":"95.593","SITE":"AFETR","MEAN_MOTION_DOT":"0.00001960","CLASSIFICATION_TYPE":"U","MEAN_ANOMALY":"307.7779","NORAD_CAT_ID":"44915","CENTER_NAME":"EARTH","OBJECT_TYPE":"PAYLOAD","TLE_LINE2":"2 44915  53.0544  38.2900 0001448  52.3342 307.7779 15.06393372108462","COUNTRY_CODE":"US","OBJECT_NAME":"STARLINK-1084","TIME_SYSTEM":"UTC","LAUNCH_DATE":"2020-01-07","ELEMENT_SET_NO":"999","EPHEMERIS_TYPE":"0","APOAPSIS":"548.237","REF_FRAME":"TEME","MEAN_ELEMENT_THEORY":"SGP4"},{"TLE_LINE1":"1 44917U 20001D   21359.58495152  .00000739  00000-0  68508-4 0  9997","REV_AT_EPOCH":"10847","MEAN_MOTION":"15.06391844","SEMIMAJOR_AXIS":"6925.374","RA_OF_ASC_NODE":"37.9780","ECCENTRICITY":"0.00011630","ARG_OF_PERICENTER":"56.2598","PERIAPSIS":"546.433","GP_ID":"192455470","FILE":"3250974","DECAY_DATE":null,"EPOCH":"2021-12-25T14:02:19.811328","RCS_SIZE":"LARGE","INCLINATION":"53.0549","BSTAR":"0.00006850800000","OBJECT_ID":"2020-001D","MEAN_ELEMENT_THEORY":"SGP4","REF_FRAME":"TEME","APOAPSIS":"548.044","EPHEMERIS_TYPE":"0","ELEMENT_SET_NO":"999","LAUNCH_DATE":"2020-01-07","TIME_SYSTEM":"UTC","COUNTRY_CODE":"US","OBJECT_NAME":"STARLINK-1098","TLE_LINE2":"2 44917  53.0549  37.9780 0001163  56.2598 303.8501 15.06391844108474","OBJECT_TYPE":"PAYLOAD","NORAD_CAT_ID":"44917","CENTER_NAME":"EARTH","MEAN_ANOMALY":"303.8501","CLASSIFICATION_TYPE":"U","MEAN_MOTION_DOT":"0.00000739","SITE":"AFETR","PERIOD":"95.593","MEAN_MOTION_DDOT":"0.0000000000000"},{"MEAN_MOTION_DDOT":"0.0000000000000","PERIOD":"95.593","SITE":"AFETR","MEAN_MOTION_DOT":"-0.00000227","CLASSIFICATION_TYPE":"U","NORAD_CAT_ID":"44918","MEAN_ANOMALY":"281.4479","CENTER_NAME":"EARTH","OBJECT_TYPE":"PAYLOAD","TLE_LINE2":"2 44918  53.0552  37.9356 0001448  78.6672 281.4479 15.06393587109219","OBJECT_NAME":"STARLINK-1099","COUNTRY_CODE":"US","TIME_SYSTEM":"UTC","LAUNCH_DATE":"2020-01-07","ELEMENT_SET_NO":"999","APOAPSIS":"548.236","EPHEMERIS_TYPE":"0","REF_FRAME":"TEME","MEAN_ELEMENT_THEORY":"SGP4","OBJECT_ID":"2020-001E","BSTAR":"0.00000363150000","INCLINATION":"53.0552","RCS_SIZE":"LARGE","DECAY_DATE":null,"EPOCH":"2021-12-25T14:18:14.361120","FILE":"3250974","GP_ID":"192456218","PERIAPSIS":"546.230","ARG_OF_PERICENTER":"78.6672","ECCENTRICITY":"0.00014480","SEMIMAJOR_AXIS":"6925.368","RA_OF_ASC_NODE":"37.9356","MEAN_MOTION":"15.06393587","REV_AT_EPOCH":"10921","TLE_LINE1":"1 44918U 20001E   21359.59599955 -.00000227  00000-0  36315-5 0  9990"},{"MEAN_MOTION":"15.06389799","SEMIMAJOR_AXIS":"6925.380","RA_OF_ASC_NODE":"37.8580","ARG_OF_PERICENTER":"79.7612","ECCENTRICITY":"0.00015880","REV_AT_EPOCH":"10847","TLE_LINE1":"1 44920U 20001G   21359.61074950 -.00004572  00000-0 -28831-3 0  9999","INCLINATION":"53.0549","RCS_SIZE":"LARGE","OBJECT_ID":"2020-001G","BSTAR":"-0.00028831000000","GP_ID":"192454968","PERIAPSIS":"546.145","EPOCH":"2021-12-25T14:39:28.756800","DECAY_DATE":null,"FILE":"3250974","TIME_SYSTEM":"UTC","LAUNCH_DATE":"2020-01-07","REF_FRAME":"TEME","MEAN_ELEMENT_THEORY":"SGP4","ELEMENT_SET_NO":"999","APOAPSIS":"548.345","EPHEMERIS_TYPE":"0","MEAN_MOTION_DDOT":"0.0000000000000","PERIOD":"95.593","SITE":"AFETR","OBJECT_TYPE":"PAYLOAD","TLE_LINE2":"2 44920  53.0549  37.8580 0001588  79.7612 280.3556 15.06389799108478","OBJECT_NAME":"STARLINK-1102","COUNTRY_CODE":"US","MEAN_MOTION_DOT":"-0.00004572","CLASSIFICATION_TYPE":"U","NORAD_CAT_ID":"44920","MEAN_ANOMALY":"280.3556","CENTER_NAME":"EARTH"},{"PERIOD":"95.592","MEAN_MOTION_DDOT":"0.0000000000000","SITE":"AFETR","MEAN_MOTION_DOT":"0.00003257","NORAD_CAT_ID":"44921","CENTER_NAME":"EARTH","MEAN_ANOMALY":"301.3023","CLASSIFICATION_TYPE":"U","TLE_LINE2":"2 44921  53.0491  37.7698 0001586  58.8121 301.3023 15.06397882108458","OBJECT_TYPE":"PAYLOAD","COUNTRY_CODE":"US","OBJECT_NAME":"STARLINK-1103","TIME_SYSTEM":"UTC","LAUNCH_DATE":"2020-01-07","ELEMENT_SET_NO":"999","APOAPSIS":"548.318","EPHEMERIS_TYPE":"0","REF_FRAME":"TEME","MEAN_ELEMENT_THEORY":"SGP4","OBJECT_ID":"2020-001H","BSTAR":"0.00023743000000","RCS_SIZE":"LARGE","INCLINATION":"53.0491","FILE":"3250974","DECAY_DATE":null,"EPOCH":"2021-12-25T15:11:19.580064","GP_ID":"192454719","PERIAPSIS":"546.122","ARG_OF_PERICENTER":"58.8121","ECCENTRICITY":"0.00015860","MEAN_MOTION":"15.06397882","SEMIMAJOR_AXIS":"6925.355","RA_OF_ASC_NODE":"37.7698","REV_AT_EPOCH":"10845","TLE_LINE1":"1 44921U 20001H   21359.63286551  .00003257  00000-0  23743-3 0  9998"},{"COUNTRY_CODE":"US","OBJECT_NAME":"STARLINK-1104","OBJECT_TYPE":"PAYLOAD","TLE_LINE2":"2 44922  53.0534  38.2019 0001252  79.0348 281.0781 15.06387376108469","CLASSIFICATION_TYPE":"U","NORAD_CAT_ID":"44922","MEAN_ANOMALY":"281.0781","CENTER_NAME":"EARTH","MEAN_MOTION_DOT":"-0.00000046","SITE":"AFETR","MEAN_MOTION_DDOT":"0.0000000000000","PERIOD":"95.593","MEAN_ELEMENT_THEORY":"SGP4","REF_FRAME":"TEME","EPHEMERIS_TYPE":"0","APOAPSIS":"548.119","ELEMENT_SET_NO":"999","LAUNCH_DATE":"2020-01-07","TIME_SYSTEM":"UTC","PERIAPSIS":"546.385","GP_ID":"192427257","DECAY_DATE":null,"EPOCH":"2021-12-25T12:48:01.707840","FILE":"3250775","INCLINATION":"53.0534","RCS_SIZE":"LARGE","BSTAR":"0.00001579500000","OBJECT_ID":"2020-001J","TLE_LINE1":"1 44922U 20001J   21359.53335310 -.00000046  00000-0  15795-4 0  9999","REV_AT_EPOCH":"10846","MEAN_MOTION":"15.06387376","SEMIMAJOR_AXIS":"6925.387","RA_OF_ASC_NODE":"38.2019","ECCENTRICITY":"0.00012520","ARG_OF_PERICENTER":"79.0348"},{"ECCENTRICITY":"0.00013240","ARG_OF_PERICENTER":"77.9927","SEMIMAJOR_AXIS":"6925.368","MEAN_MOTION":"15.06393509","RA_OF_ASC_NODE":"37.7893","TLE_LINE1":"1 44923U 20001K   21359.62548848 -.00000697  00000-0 -27894-4 0  9998","REV_AT_EPOCH":"10847","BSTAR":"-0.00002789400000","OBJECT_ID":"2020-001K","RCS_SIZE":"LARGE","INCLINATION":"53.0532","FILE":"3250974","EPOCH":"2021-12-25T15:00:42.204672","DECAY_DATE":null,"PERIAPSIS":"546.317","GP_ID":"192455719","LAUNCH_DATE":"2020-01-07","TIME_SYSTEM":"UTC","APOAPSIS":"548.150","EPHEMERIS_TYPE":"0","ELEMENT_SET_NO":"999","MEAN_ELEMENT_THEORY":"SGP4","REF_FRAME":"TEME","SITE":"AFETR","PERIOD":"95.593","MEAN_MOTION_DDOT":"0.0000000000000","NORAD_CAT_ID":"44923","MEAN_ANOMALY":"282.1211","CENTER_NAME":"EARTH","CLASSIFICATION_TYPE":"U","MEAN_MOTION_DOT":"-0.00000697","COUNTRY_CODE":"US","OBJECT_NAME":"STARLINK-1106","TLE_LINE2":"2 44923  53.0532  37.7893 0001324  77.9927 282.1211 15.06393509108478","OBJECT_TYPE":"PAYLOAD"},{"MEAN_MOTION_DDOT":"0.0000000000000","PERIOD":"95.592","SITE":"AFETR","OBJECT_TYPE":"PAYLOAD","TLE_LINE2":"2 44924  53.0545  37.8416 0001614  74.9681 285.1486 15.06399979108475","COUNTRY_CODE":"US","OBJECT_NAME":"STARLINK-1111","MEAN_MOTION_DOT":"-0.00000043","CLASSIFICATION_TYPE":"U","MEAN_ANOMALY":"285.1486","NORAD_CAT_ID":"44924","CENTER_NAME":"EARTH","TIME_SYSTEM":"UTC","LAUNCH_DATE":"2020-01-07","REF_FRAME":"TEME","MEAN_ELEMENT_THEORY":"SGP4","ELEMENT_SET_NO":"999","APOAPSIS":"548.331","EPHEMERIS_TYPE":"0","INCLINATION":"53.0545","RCS_SIZE":"LARGE","OBJECT_ID":"2020-001L","BSTAR":"0.00001600400000","GP_ID":"192454469","PERIAPSIS":"546.096","DECAY_DATE":null,"EPOCH":"2021-12-25T14:44:46.196448","FILE":"3250974","SEMIMAJOR_AXIS":"6925.349","MEAN_MOTION":"15.06399979","RA_OF_ASC_NODE":"37.8416","ARG_OF_PERICENTER":"74.9681","ECCENTRICITY":"0.00016140","REV_AT_EPOCH":"10847","TLE_LINE1":"1 44924U 20001L   21359.61442357 -.00000043  00000-0  16004-4 0  9991"},{"MEAN_MOTION_DDOT":"0.0000000000000","PERIOD":"95.592","SITE":"AFETR","OBJECT_TYPE":"PAYLOAD","TLE_LINE2":"2 44925  53.0551  37.7702 0001298  72.2955 287.8176 15.06399486108471","COUNTRY_CODE":"US","OBJECT_NAME":"STARLINK-1112","MEAN_MOTION_DOT":"0.00000714","CLASSIFICATION_TYPE":"U","NORAD_CAT_ID":"44925","CENTER_NAME":"EARTH","MEAN_ANOMALY":"287.8176","TIME_SYSTEM":"UTC","LAUNCH_DATE":"2020-01-07","REF_FRAME":"TEME","MEAN_ELEMENT_THEORY":"SGP4","ELEMENT_SET_NO":"999","EPHEMERIS_TYPE":"0","APOAPSIS":"548.114","INCLINATION":"53.0551","RCS_SIZE":"LARGE","OBJECT_ID":"2020-001M","BSTAR":"0.00006680200000","GP_ID":"192455219","PERIAPSIS":"546.316","DECAY_DATE":null,"EPOCH":"2021-12-25T15:06:01.190880","FILE":"3250974","RA_OF_ASC_NODE":"37.7702","SEMIMAJOR_AXIS":"6925.350","MEAN_MOTION":"15.06399486","ARG_OF_PERICENTER":"72.2955","ECCENTRICITY":"0.00012980","REV_AT_EPOCH":"10847","TLE_LINE1":"1 44925U 20001M   21359.62918045  .00000714  00000-0  66802-4 0  9990"},{"ECCENTRICITY":"0.00013570","ARG_OF_PERICENTER":"71.8784","SEMIMAJOR_AXIS":"6927.819","MEAN_MOTION":"15.05594268","RA_OF_ASC_NODE":"38.7523","TLE_LINE1":"1 44926U 20001N   21359.41186228  .00001748  00000-0  13903-3 0  9999","REV_AT_EPOCH":"10916","BSTAR":"0.00013903000000","OBJECT_ID":"2020-001N","INCLINATION":"53.0008","RCS_SIZE":"LARGE","EPOCH":"2021-12-25T09:53:04.900992","DECAY_DATE":null,"FILE":"3250775","PERIAPSIS":"548.744","GP_ID":"192426758","LAUNCH_DATE":"2020-01-07","TIME_SYSTEM":"UTC","EPHEMERIS_TYPE":"0","APOAPSIS":"550.624","ELEMENT_SET_NO":"999","MEAN_ELEMENT_THEORY":"SGP4","REF_FRAME":"TEME","SITE":"AFETR","MEAN_MOTION_DDOT":"0.0000000000000","PERIOD":"95.643","CLASSIFICATION_TYPE":"U","NORAD_CAT_ID":"44926","CENTER_NAME":"EARTH","MEAN_ANOMALY":"288.2351","MEAN_MOTION_DOT":"0.00001748","COUNTRY_CODE":"US","OBJECT_NAME":"STARLINK-1113","OBJECT_TYPE":"PAYLOAD","TLE_LINE2":"2 44926  53.0008  38.7523 0001357  71.8784 288.2351 15.05594268109163"}];
